1 33591U 09005A   25165.86715456  .00000169  00000-0  11402-3 0  9993
2 33591  98.9970 230.6013 0013468 353.5851   6.5146 14.13376828842595
-33.46266000550655
-70.66018848896903
